[{"OBJECT_NAME":"STARLINK-4546","OBJECT_ID":"2022-097AL","EPOCH":"2026-03-09T12:47:31.274304","MEAN_MOTION":15.08833356,"ECCENTRICITY":0.00013471,"INCLINATION":53.2168,"RA_OF_ASC_NODE":114.8252,"ARG_OF_PERICENTER":97.5301,"MEAN_ANOMALY":262.5845,"EPHEMERIS_TYPE":0,"CLASSIFICATION_TYPE":"U","NORAD_CAT_ID":53422,"ELEMENT_SET_NO":999,"REV_AT_EPOCH":19862,"BSTAR":-2.802147e-6,"MEAN_MOTION_DOT":-3.32e-6,"MEAN_MOTION_DDOT":0},{"OBJECT_NAME":"DELTA 1 DEB","OBJECT_ID":"1977-065CC","EPOCH":"2026-03-09T22:33:14.085504","MEAN_MOTION":13.8497458,"ECCENTRICITY":0.06695418,"INCLINATION":28.9783,"RA_OF_ASC_NODE":359.1013,"ARG_OF_PERICENTER":308.7305,"MEAN_ANOMALY":45.5226,"EPHEMERIS_TYPE":0,"CLASSIFICATION_TYPE":"U","NORAD_CAT_ID":10251,"ELEMENT_SET_NO":999,"REV_AT_EPOCH":40349,"BSTAR":0.00050077095,"MEAN_MOTION_DOT":3.77e-5,"MEAN_MOTION_DDOT":0}]
